[Satellite]
VERSION=1.1
NAME=NTS (CANX-6)
NICKNAME=NTS (CANX-6)
TLE1=1 32784U 08021B   15054.69859734  .00001589  00000-0  19093-3 0  9999
TLE2=2 32784  97.6632  99.9859 0016109  85.6801  38.2265 14.85230839369213
